{"version": 0.6, "generator": "Overpass API 0.7.57 93a4d346", "osm3s": {"timestamp_osm_base": "2022-01-17T16:29:24Z", "copyright": "The data included in this document is from www.openstreetmap.org. The data is made available under ODbL."}, "elements": [{"type": "node", "id": 14956516, "lat": 48.8314623, "lon": 2.3759776, "tags": {"highway": "traffic_signals", "traffic_signals": "signal"}}, {"type": "node", "id": 14956524, "lat": 48.8313818, "lon": 2.3757348}, {"type": "node", "id": 243891830, "lat": 48.8444832, "lon": 2.4394804}, {"type": "node", "id": 245981362, "lat": 48.8445405, "lon": 2.4387378, "tags": {"highway": "traffic_signals"}}, {"type": "node", "id": 246243667, "lat": 48.8414185, "lon": 2.4988274}, {"type": "node", "id": 247171906, "lat": 48.8539579, "lon": 2.4934545}, {"type": "node", "id": 250140493, "lat": 48.8729294, "lon": 2.486622}, {"type": "node", "id": 254437807, "lat": 48.9064712, "lon": 2.4456249}, {"type": "node", "id": 268208927, "lat": 48.8306792, "lon": 2.3868024}, {"type": "node", "id": 268220945, "lat": 48.831417, "lon": 2.3758627, "tags": {"crossing": "zebra", "highway": "crossing", "kerb": "lowered", "tactile_paving": "yes"}}, {"type": "node", "id": 331367596, "lat": 48.9043953, "lon": 2.4721212}, {"type": "node", "id": 334638303, "lat": 48.8445706, "lon": 2.4394978}, {"type": "node", "id": 334638304, "lat": 48.8446381, "lon": 2.4387531, "tags": {"highway": "traffic_signals"}}, {"type": "node", "id": 345503231, "lat": 48.8380016, "lon": 2.4938161, "tags": {"source": "cadastre-dgi-fr source : Direction G\u00e9n\u00e9rale des Imp\u00f4ts - Cadastre. Mise \u00e0 jour : 2009"}}, {"type": "node", "id": 422503162, "lat": 48.8380224, "lon": 2.493946}, {"type": "node", "id": 1223207725, "lat": 48.904337, "lon": 2.4730221}, {"type": "node", "id": 1240025312, "lat": 48.8978045, "lon": 2.4707628}, {"type": "node", "id": 1254122190, "lat": 48.9065921, "lon": 2.445472}, {"type": "node", "id": 1254122520, "lat": 48.906696, "lon": 2.445265}, {"type": "node", "id": 1651614432, "lat": 48.8406956, "lon": 2.3786298}, {"type": "node", "id": 1651614452, "lat": 48.8403281, "lon": 2.3788013}, {"type": "node", "id": 1738297391, "lat": 48.8973684, "lon": 2.4705085}, {"type": "node", "id": 1738297392, "lat": 48.8973154, "lon": 2.4704023, "tags": {"crossing": "uncontrolled", "crossing_ref": "zebra", "highway": "crossing", "tactile_paving": "yes"}}, {"type": "node", "id": 1738297395, "lat": 48.8974762, "lon": 2.4705944, "tags": {"highway": "traffic_signals"}}, {"type": "node", "id": 1763424795, "lat": 48.8954647, "lon": 2.4257416}, {"type": "node", "id": 1763424822, "lat": 48.8930288, "lon": 2.4122908}, {"type": "node", "id": 1763424874, "lat": 48.8929321, "lon": 2.4122743}, {"type": "node", "id": 1763424890, "lat": 48.895363, "lon": 2.425684}, {"type": "node", "id": 1763425198, "lat": 48.8929976, "lon": 2.4121619}, {"type": "node", "id": 1767583672, "lat": 48.8404584, "lon": 2.3788567, "tags": {"highway": "traffic_signals", "source": "CG93/A\u00e9rodata 2013;survey"}}, {"type": "node", "id": 1767583674, "lat": 48.8404941, "lon": 2.3788359}, {"type": "node", "id": 1776303097, "lat": 48.8873032, "lon": 2.4662276}, {"type": "node", "id": 1776303110, "lat": 48.8872448, "lon": 2.4662547}, {"type": "node", "id": 1776303125, "lat": 48.8871988, "lon": 2.4667876}, {"type": "node", "id": 1776303131, "lat": 48.887212, "lon": 2.4669509, "tags": {"crossing": "uncontrolled", "crossing_ref": "zebra", "highway": "crossing", "tactile_paving": "yes"}}, {"type": "node", "id": 1776303135, "lat": 48.8872647, "lon": 2.4661565}, {"type": "node", "id": 1776303136, "lat": 48.8872743, "lon": 2.466241}, {"type": "node", "id": 1824559944, "lat": 48.8364327, "lon": 2.4792294}, {"type": "node", "id": 1824559948, "lat": 48.8365719, "lon": 2.4793019}, {"type": "node", "id": 1824559959, "lat": 48.8365012, "lon": 2.4792518, "tags": {"highway": "traffic_signals"}}, {"type": "node", "id": 1824559960, "lat": 48.836476, "lon": 2.4792386, "tags": {"crossing": "marked", "highway": "crossing", "tactile_paving": "no"}}, {"type": "node", "id": 1824559961, "lat": 48.8363908, "lon": 2.4792221}, {"type": "node", "id": 2283276690, "lat": 48.9066548, "lon": 2.4453588, "tags": {"railway": "level_crossing"}}, {"type": "node", "id": 2415404297, "lat": 48.905758, "lon": 2.4801054}, {"type": "node", "id": 2415404298, "lat": 48.905872, "lon": 2.4803045}, {"type": "node", "id": 2415404299, "lat": 48.905687, "lon": 2.4798844}, {"type": "node", "id": 2416347167, "lat": 48.8625046, "lon": 2.4162177}, {"type": "node", "id": 2416347180, "lat": 48.8624685, "lon": 2.4160877, "tags": {"crossing": "traffic_signals", "crossing_ref": "zebra", "highway": "traffic_signals"}}, {"type": "node", "id": 2416347184, "lat": 48.8624587, "lon": 2.4159656}, {"type": "node", "id": 2515487811, "lat": 48.8415284, "lon": 2.4988085, "tags": {"crossing": "marked", "highway": "crossing", "tactile_paving": "no"}}, {"type": "node", "id": 2515487814, "lat": 48.8416179, "lon": 2.498848}, {"type": "node", "id": 2515487823, "lat": 48.8414705, "lon": 2.4987759}, {"type": "node", "id": 2515487829, "lat": 48.8415506, "lon": 2.4988214, "tags": {"highway": "traffic_signals"}}, {"type": "node", "id": 2527429586, "lat": 48.8736562, "lon": 2.4865965, "tags": {"highway": "traffic_signals"}}, {"type": "node", "id": 2527429643, "lat": 48.873224, "lon": 2.4865285}, {"type": "node", "id": 2527429705, "lat": 48.8729838, "lon": 2.4865465}, {"type": "node", "id": 2528038258, "lat": 48.8735532, "lon": 2.4866376}, {"type": "node", "id": 2528038332, "lat": 48.8731785, "lon": 2.4865873}, {"type": "node", "id": 2528038411, "lat": 48.8733181, "lon": 2.486616, "tags": {"crossing": "uncontrolled", "crossing_ref": "zebra", "highway": "crossing"}}, {"type": "node", "id": 2528038472, "lat": 48.873358, "lon": 2.4866248, "tags": {"highway": "traffic_signals"}}, {"type": "node", "id": 3205768696, "lat": 48.853937, "lon": 2.493381}, {"type": "node", "id": 3450915072, "lat": 48.9066288, "lon": 2.4454046, "tags": {"railway": "level_crossing"}}, {"type": "node", "id": 5799947832, "lat": 48.9057359, "lon": 2.4799779}, {"type": "node", "id": 5879246436, "lat": 48.9066133, "lon": 2.4454335, "tags": {"highway": "traffic_signals", "traffic_signals": "signal"}}, {"type": "node", "id": 5879246437, "lat": 48.9065692, "lon": 2.4455076}, {"type": "node", "id": 5879246438, "lat": 48.906554, "lon": 2.4455277}, {"type": "node", "id": 5879246449, "lat": 48.9066695, "lon": 2.4453266}, {"type": "node", "id": 6817982409, "lat": 48.8404311, "lon": 2.3788643, "tags": {"crossing": "traffic_signals", "crossing_ref": "zebra", "highway": "crossing", "tactile_paving": "yes"}}, {"type": "node", "id": 6954429784, "lat": 48.8306866, "lon": 2.3867691}, {"type": "node", "id": 6954444985, "lat": 48.8307016, "lon": 2.3867114}, {"type": "node", "id": 6954444986, "lat": 48.8307241, "lon": 2.3866671}, {"type": "node", "id": 6954444987, "lat": 48.8307598, "lon": 2.386641}, {"type": "node", "id": 6954444988, "lat": 48.8307916, "lon": 2.3866429}, {"type": "node", "id": 6958316694, "lat": 48.8974132, "lon": 2.4705442, "tags": {"crossing": "uncontrolled", "crossing_ref": "zebra", "highway": "crossing", "tactile_paving": "yes"}}, {"type": "node", "id": 7704951658, "lat": 48.841025, "lon": 2.4334439}, {"type": "node", "id": 7704951666, "lat": 48.840923, "lon": 2.4332372}, {"type": "node", "id": 7741032716, "lat": 48.8406503, "lon": 2.3786129}, {"type": "node", "id": 7741032717, "lat": 48.8404629, "lon": 2.3788556}, {"type": "node", "id": 7741032718, "lat": 48.8404112, "lon": 2.378859}, {"type": "node", "id": 8000734011, "lat": 48.8414114, "lon": 2.4988945}, {"type": "way", "id": 4039381, "nodes": [243891830, 334638303], "tags": {"cycleway:both": "no", "foot": "no", "highway": "tertiary_link", "lanes": "1", "lit": "yes", "maxspeed": "50", "maxspeed:type": "FR:urban", "sidewalk": "none", "surface": "asphalt"}}, {"type": "way", "id": 4039841, "nodes": [14956516, 268220945, 14956524], "tags": {"highway": "tertiary_link", "maxspeed": "30", "oneway": "yes", "surface": "asphalt"}}, {"type": "way", "id": 30104359, "nodes": [254437807, 5879246438, 5879246437, 1254122190, 5879246436, 3450915072, 2283276690, 5879246449, 1254122520], "tags": {"highway": "tertiary_link", "lanes": "2", "oneway": "yes", "surface": "asphalt"}}, {"type": "way", "id": 106659905, "nodes": [334638304, 245981362], "tags": {"highway": "tertiary_link", "lane_markings": "no", "lit": "yes", "maxspeed": "50", "maxspeed:type": "FR:urban", "surface": "asphalt"}}, {"type": "way", "id": 152338323, "nodes": [1651614432, 7741032716, 1767583674, 7741032717, 1767583672, 6817982409, 7741032718, 1651614452], "tags": {"highway": "tertiary_link", "lanes": "1", "lit": "yes", "maxspeed": "30", "name": "Rue de Bercy", "oneway": "yes", "sidewalk": "right", "surface": "asphalt"}}, {"type": "way", "id": 161032246, "nodes": [1223207725, 331367596], "tags": {"highway": "tertiary_link", "oneway": "yes", "ref": "D 10"}}, {"type": "way", "id": 161870588, "nodes": [1240025312, 1738297395, 6958316694, 1738297391, 1738297392], "tags": {"highway": "tertiary_link", "maxheight": "3.6", "oneway": "yes", "surface": "asphalt"}}, {"type": "way", "id": 162311834, "nodes": [422503162, 345503231], "tags": {"cycleway": "no", "foot": "no", "highway": "tertiary_link", "lane_markings": "no", "lit": "yes", "ref": "D 245", "sidewalk": "none", "surface": "asphalt"}}, {"type": "way", "id": 164735139, "nodes": [1763424795, 1763424890], "tags": {"highway": "tertiary_link", "oneway": "yes", "surface": "asphalt"}}, {"type": "way", "id": 164735151, "nodes": [1763424874, 1763424822], "tags": {"cycleway:right": "no", "highway": "tertiary_link", "lane_markings": "no", "maxspeed": "30", "oneway": "yes", "surface": "asphalt"}}, {"type": "way", "id": 164735154, "nodes": [1763425198, 1763424874], "tags": {"highway": "tertiary_link", "lane_markings": "no", "maxspeed": "30", "oneway": "yes", "surface": "asphalt"}}, {"type": "way", "id": 166148704, "nodes": [1776303110, 1776303136, 1776303097], "tags": {"highway": "tertiary_link", "name": "Rue Elsa Triolet", "oneway": "yes", "surface": "asphalt"}}, {"type": "way", "id": 166148708, "nodes": [1776303131, 1776303125, 1776303136, 1776303135], "tags": {"highway": "tertiary_link", "oneway": "yes", "surface": "asphalt"}}, {"type": "way", "id": 171422861, "nodes": [1824559948, 1824559959, 1824559960, 1824559944, 1824559961], "tags": {"cycleway:right": "no", "highway": "tertiary_link", "lane_markings": "no", "lit": "yes", "maxspeed": "30", "oneway": "yes", "surface": "asphalt"}}, {"type": "way", "id": 233188581, "nodes": [2415404299, 5799947832, 2415404297, 2415404298], "tags": {"highway": "tertiary_link", "oneway": "yes"}}, {"type": "way", "id": 233270143, "nodes": [2416347167, 2416347180, 2416347184], "tags": {"highway": "tertiary_link", "oneway": "yes", "surface": "asphalt"}}, {"type": "way", "id": 244208426, "nodes": [2515487814, 2515487829, 2515487811, 2515487823], "tags": {"cycleway:both": "no", "highway": "tertiary_link", "lane_markings": "no", "lit": "yes", "maxspeed:type": "FR:urban", "oneway": "yes", "ref": "D 246", "sidewalk": "right", "surface": "asphalt"}}, {"type": "way", "id": 245647023, "nodes": [2527429643, 2528038332], "tags": {"highway": "tertiary_link", "oneway": "yes", "surface": "asphalt"}}, {"type": "way", "id": 245647031, "nodes": [2527429586, 2528038258, 2528038472, 2528038411, 2528038332, 2527429705, 250140493], "tags": {"highway": "tertiary_link", "oneway": "yes", "surface": "asphalt"}}, {"type": "way", "id": 314528673, "nodes": [247171906, 3205768696], "tags": {"cycleway:right": "no", "highway": "tertiary_link", "lane_markings": "no", "oneway": "yes", "surface": "asphalt"}}, {"type": "way", "id": 742897795, "nodes": [6954444988, 6954444987, 6954444986, 6954444985, 6954429784, 268208927], "tags": {"highway": "tertiary_link", "lit": "yes", "maxspeed": "30", "name": "Avenue des Terroirs de France", "oneway": "yes", "surface": "asphalt"}}, {"type": "way", "id": 825166644, "nodes": [7704951666, 7704951658], "tags": {"destination": "Montreuil", "destination:ref": "D 280 B", "highway": "tertiary_link", "lanes": "1", "maxspeed": "30", "oneway": "yes", "surface": "asphalt"}}, {"type": "way", "id": 858234778, "nodes": [246243667, 8000734011], "tags": {"cycleway:both": "no", "highway": "tertiary_link", "lane_markings": "no", "lit": "yes", "maxspeed:type": "FR:urban", "oneway": "yes", "ref": "D 246", "sidewalk": "right", "surface": "asphalt"}}, {"type": "way", "id": 858234781, "nodes": [2515487823, 246243667], "tags": {"cycleway:both": "no", "foot": "no", "highway": "tertiary_link", "lane_markings": "no", "lit": "yes", "maxspeed:type": "FR:urban", "oneway": "yes", "ref": "D 246", "sidewalk": "none", "surface": "asphalt"}}]}