{"version": 0.6, "generator": "Overpass API 0.7.57 93a4d346", "osm3s": {"timestamp_osm_base": "2022-01-17T16:25:24Z", "copyright": "The data included in this document is from www.openstreetmap.org. The data is made available under ODbL."}, "elements": [{"type": "node", "id": 30484623, "lat": 48.5812788, "lon": 7.7360295, "tags": {"railway": "tram_level_crossing"}}, {"type": "node", "id": 56551935, "lat": 48.5911912, "lon": 7.7087329}, {"type": "node", "id": 128525114, "lat": 48.5779722, "lon": 7.7353642}, {"type": "node", "id": 128525132, "lat": 48.5787124, "lon": 7.7349165}, {"type": "node", "id": 128525224, "lat": 48.5790203, "lon": 7.7351072, "tags": {"highway": "traffic_signals"}}, {"type": "node", "id": 207486721, "lat": 48.5911688, "lon": 7.6917491, "tags": {"crossing": "traffic_signals", "crossing_ref": "zebra", "highway": "traffic_signals", "tactile_paving": "yes"}}, {"type": "node", "id": 240993792, "lat": 48.5812805, "lon": 7.7359148}, {"type": "node", "id": 240995518, "lat": 48.5812781, "lon": 7.7361065, "tags": {"highway": "traffic_signals", "source": "Bing"}}, {"type": "node", "id": 288154452, "lat": 48.5785497, "lon": 7.7348707}, {"type": "node", "id": 288158473, "lat": 48.5783402, "lon": 7.7348641, "tags": {"crossing_ref": "zebra", "highway": "crossing", "source": "Bing", "tactile_paving": "yes"}}, {"type": "node", "id": 484794007, "lat": 48.5782098, "lon": 7.7349727}, {"type": "node", "id": 484794010, "lat": 48.5784346, "lon": 7.734843}, {"type": "node", "id": 484794011, "lat": 48.5787893, "lon": 7.734937}, {"type": "node", "id": 1021033912, "lat": 48.6065071, "lon": 7.7302723}, {"type": "node", "id": 1021034033, "lat": 48.6065133, "lon": 7.7303603}, {"type": "node", "id": 1021034035, "lat": 48.6066438, "lon": 7.730237}, {"type": "node", "id": 1021034281, "lat": 48.606753, "lon": 7.7303486}, {"type": "node", "id": 1021034351, "lat": 48.6066086, "lon": 7.7303347}, {"type": "node", "id": 1021034371, "lat": 48.606413, "lon": 7.7300442}, {"type": "node", "id": 1021034880, "lat": 48.6064652, "lon": 7.7303304}, {"type": "node", "id": 1025491877, "lat": 48.5811794, "lon": 7.727711}, {"type": "node", "id": 1025492414, "lat": 48.5808525, "lon": 7.7272983}, {"type": "node", "id": 1335903556, "lat": 48.5936494, "lon": 7.7027877}, {"type": "node", "id": 1642119402, "lat": 48.5910596, "lon": 7.6915393}, {"type": "node", "id": 1642119435, "lat": 48.5911101, "lon": 7.6916298}, {"type": "node", "id": 1652838135, "lat": 48.5812789, "lon": 7.7359787, "tags": {"railway": "tram_level_crossing"}}, {"type": "node", "id": 1832165726, "lat": 48.6172637, "lon": 7.7678766}, {"type": "node", "id": 1832165727, "lat": 48.6172814, "lon": 7.7676479, "tags": {"crossing": "uncontrolled", "crossing_ref": "zebra", "highway": "crossing", "tactile_paving": "yes"}}, {"type": "node", "id": 1832165729, "lat": 48.6172941, "lon": 7.7680185, "tags": {"crossing": "uncontrolled", "crossing_ref": "zebra", "highway": "crossing", "source": "Bing", "tactile_paving": "yes"}}, {"type": "node", "id": 1832165732, "lat": 48.6172963, "lon": 7.7674701}, {"type": "node", "id": 1832165743, "lat": 48.6173268, "lon": 7.7680693}, {"type": "node", "id": 3123608986, "lat": 48.6067076, "lon": 7.7302902}, {"type": "node", "id": 3718310848, "lat": 48.593707, "lon": 7.7026634}, {"type": "node", "id": 3718310849, "lat": 48.5935915, "lon": 7.7026178}, {"type": "node", "id": 3742890679, "lat": 48.5912045, "lon": 7.7093071}, {"type": "node", "id": 4512507364, "lat": 48.5909138, "lon": 7.7092719}, {"type": "node", "id": 4512507365, "lat": 48.5908565, "lon": 7.7093074}, {"type": "node", "id": 4512507366, "lat": 48.5910264, "lon": 7.7091794}, {"type": "node", "id": 4512507367, "lat": 48.5910823, "lon": 7.7091055}, {"type": "node", "id": 4512507368, "lat": 48.5911235, "lon": 7.7090117, "tags": {"crossing": "uncontrolled", "crossing_ref": "zebra", "highway": "crossing", "tactile_paving": "yes"}}, {"type": "node", "id": 4512507377, "lat": 48.5912447, "lon": 7.7096691}, {"type": "node", "id": 4512507378, "lat": 48.5911896, "lon": 7.7095967}, {"type": "node", "id": 4512507380, "lat": 48.5909764, "lon": 7.7094458}, {"type": "node", "id": 4823801027, "lat": 48.5910185, "lon": 7.7095228}, {"type": "node", "id": 4823801029, "lat": 48.591046, "lon": 7.7095369}, {"type": "node", "id": 4823801072, "lat": 48.5911352, "lon": 7.7095663, "tags": {"crossing": "uncontrolled", "crossing_ref": "zebra", "highway": "crossing", "tactile_paving": "yes"}}, {"type": "node", "id": 4823801090, "lat": 48.5911059, "lon": 7.7090516}, {"type": "node", "id": 4823801155, "lat": 48.5911116, "lon": 7.7095531, "tags": {"crossing": "uncontrolled", "crossing_ref": "zebra", "highway": "crossing", "tactile_paving": "yes"}}, {"type": "node", "id": 4823801161, "lat": 48.5909629, "lon": 7.7092434}, {"type": "node", "id": 4823801162, "lat": 48.5911541, "lon": 7.7089087}, {"type": "node", "id": 4825543194, "lat": 48.5912226, "lon": 7.709634, "tags": {"highway": "give_way"}}, {"type": "node", "id": 4825543196, "lat": 48.5912372, "lon": 7.7093644}, {"type": "node", "id": 4825543197, "lat": 48.5912629, "lon": 7.7094422}, {"type": "node", "id": 4825543198, "lat": 48.5912771, "lon": 7.7095476, "tags": {"crossing": "traffic_signals", "crossing_ref": "zebra", "highway": "traffic_signals", "tactile_paving": "yes"}}, {"type": "node", "id": 4825543200, "lat": 48.5913321, "lon": 7.7100242}, {"type": "node", "id": 4976238923, "lat": 48.5912538, "lon": 7.7093994}, {"type": "node", "id": 5191683031, "lat": 48.6065543, "lon": 7.7303473, "tags": {"crossing": "traffic_signals", "crossing_ref": "zebra", "highway": "crossing", "tactile_paving": "yes"}}, {"type": "node", "id": 5191683033, "lat": 48.6064955, "lon": 7.7301131}, {"type": "node", "id": 5268677461, "lat": 48.6172663, "lon": 7.7678154}, {"type": "node", "id": 5268677462, "lat": 48.6172739, "lon": 7.7677437}, {"type": "node", "id": 5268677463, "lat": 48.6172721, "lon": 7.7679294}, {"type": "node", "id": 5268677464, "lat": 48.6172862, "lon": 7.7676054, "tags": {"crossing": "uncontrolled", "crossing_ref": "zebra", "highway": "crossing", "tactile_paving": "yes"}}, {"type": "node", "id": 5268677496, "lat": 48.6172807, "lon": 7.7679828, "tags": {"crossing": "uncontrolled", "crossing_ref": "zebra", "highway": "crossing", "tactile_paving": "yes"}}, {"type": "node", "id": 5807809391, "lat": 48.6065143, "lon": 7.7301288, "tags": {"crossing": "traffic_signals", "crossing_ref": "zebra", "highway": "traffic_signals", "tactile_paving": "yes"}}, {"type": "node", "id": 5807809392, "lat": 48.6065381, "lon": 7.7302505, "tags": {"crossing": "traffic_signals", "crossing_ref": "zebra", "highway": "traffic_signals", "tactile_paving": "yes"}}, {"type": "node", "id": 6576565596, "lat": 48.5782712, "lon": 7.7349101}, {"type": "node", "id": 6576565597, "lat": 48.5781421, "lon": 7.7350871}, {"type": "node", "id": 6770239792, "lat": 48.5781028, "lon": 7.7351511, "tags": {"bus": "yes", "name": "Mus\u00e9e d'Art Moderne", "public_transport": "stop_position"}}, {"type": "node", "id": 6821277208, "lat": 48.6065903, "lon": 7.7302364}, {"type": "node", "id": 6821277209, "lat": 48.6066781, "lon": 7.7303343}, {"type": "node", "id": 7257656200, "lat": 48.5913038, "lon": 7.7098856}, {"type": "node", "id": 7258076876, "lat": 48.5754406, "lon": 7.7533899}, {"type": "node", "id": 7258076877, "lat": 48.5753962, "lon": 7.753467, "tags": {"highway": "crossing"}}, {"type": "node", "id": 7258076878, "lat": 48.5753689, "lon": 7.75353}, {"type": "node", "id": 7258076879, "lat": 48.5753381, "lon": 7.7536242}, {"type": "node", "id": 7258076880, "lat": 48.5753132, "lon": 7.7537252}, {"type": "node", "id": 7258076881, "lat": 48.5752858, "lon": 7.7538636}, {"type": "node", "id": 8855253582, "lat": 48.5808429, "lon": 7.7273872}, {"type": "node", "id": 8855253583, "lat": 48.5808474, "lon": 7.7274522}, {"type": "node", "id": 8855253584, "lat": 48.580862, "lon": 7.7274992}, {"type": "node", "id": 8855253585, "lat": 48.5808784, "lon": 7.7275461}, {"type": "node", "id": 8855253586, "lat": 48.5808936, "lon": 7.7275706, "tags": {"crossing": "traffic_signals", "crossing_ref": "zebra", "highway": "traffic_signals", "source": "survey", "tactile_paving": "yes"}}, {"type": "node", "id": 8855253587, "lat": 48.5809259, "lon": 7.7275991}, {"type": "node", "id": 8855253588, "lat": 48.5809627, "lon": 7.7276105}, {"type": "node", "id": 8855253589, "lat": 48.5810967, "lon": 7.72764}, {"type": "way", "id": 22447752, "nodes": [240995518, 30484623, 1652838135, 240993792], "tags": {"highway": "tertiary_link", "lanes": "2", "lit": "yes", "name": "Rue Sainte-Marguerite", "name:de": "Margarethengasse", "name:fr": "Rue Sainte-Marguerite", "oneway": "yes", "service": "alley", "sidewalk": "right", "source": "cadastre-dgi-fr source : Direction G\u00e9n\u00e9rale des Imp\u00f4ts - Cadastre ; mise \u00e0 jour : 2009", "surface": "asphalt"}}, {"type": "way", "id": 26303773, "nodes": [128525114, 6770239792, 6576565597, 484794007, 6576565596, 288158473, 484794010, 288154452, 128525132], "tags": {"highway": "tertiary_link", "lit": "yes", "maxspeed": "50", "name": "Rue des Fr\u00e8res Matthis", "oneway": "yes", "sidewalk": "right", "source": "cadastre-dgi-fr source : Direction G\u00e9n\u00e9rale des Imp\u00f4ts - Cadastre;mise \u00e0 jour : 2009", "surface": "asphalt"}}, {"type": "way", "id": 87826889, "nodes": [1021034281, 3123608986, 1021034035, 5807809391, 5191683033, 1021034371], "tags": {"highway": "tertiary_link", "lanes": "1", "maxspeed": "50", "name": "Avenue du 23 Novembre", "oneway": "yes", "source": "Bing", "surface": "asphalt"}}, {"type": "way", "id": 87826894, "nodes": [1021034035, 6821277208, 5807809392, 1021033912, 1021034880], "tags": {"highway": "tertiary_link", "lanes": "1", "maxspeed": "50", "name": "Avenue du 23 Novembre", "oneway": "yes", "source": "Bing", "surface": "asphalt"}}, {"type": "way", "id": 122917608, "nodes": [128525132, 484794011, 128525224], "tags": {"highway": "tertiary_link", "lit": "yes", "maxspeed": "50", "name": "Rue de Molsheim", "name:de": "Molsheimer Stra\u00dfe", "name:fr": "Rue de Molsheim", "oneway": "yes", "source": "cadastre-dgi-fr source : Direction G\u00e9n\u00e9rale des Imp\u00f4ts - Cadastre. Mise \u00e0 jour : 2009", "surface": "asphalt"}}, {"type": "way", "id": 123235339, "nodes": [3718310848, 3718310849], "tags": {"highway": "tertiary_link", "lanes": "2", "lit": "yes", "maxspeed": "50", "oneway": "yes", "surface": "asphalt"}}, {"type": "way", "id": 172276176, "nodes": [1021034880, 1021034033, 5191683031, 1021034351, 6821277209, 1021034281], "tags": {"highway": "tertiary_link", "lanes": "1", "maxspeed": "50", "name": "Avenue du 23 Novembre", "oneway": "yes", "source": "Bing", "surface": "asphalt"}}, {"type": "way", "id": 172297937, "nodes": [1832165743, 1832165729, 5268677496, 5268677463, 1832165726, 5268677461, 5268677462, 1832165727, 5268677464, 1832165732], "tags": {"highway": "tertiary_link", "lanes": "1", "lit": "yes", "maxspeed": "50", "oneway": "yes", "sidewalk": "no", "surface": "asphalt"}}, {"type": "way", "id": 454719832, "nodes": [56551935, 4823801162, 4512507368, 4823801090, 4512507367, 4512507366, 4823801161, 4512507364, 4512507365], "tags": {"highway": "tertiary_link", "lanes": "1", "lit": "yes", "maxspeed": "50", "oneway": "yes", "sidewalk": "right", "surface": "asphalt"}}, {"type": "way", "id": 454719833, "nodes": [4823801027, 4823801029, 4823801155, 4823801072, 4512507378, 4825543194, 4512507377], "tags": {"highway": "tertiary_link", "lanes": "1", "lit": "yes", "maxspeed": "50", "oneway": "yes", "surface": "asphalt"}}, {"type": "way", "id": 490187459, "nodes": [3718310849, 1335903556], "tags": {"highway": "tertiary_link", "lanes": "2", "lit": "yes", "maxspeed": "50", "oneway": "yes", "sidewalk": "right", "surface": "asphalt"}}, {"type": "way", "id": 490369481, "nodes": [4825543200, 7257656200, 4825543198, 4825543197, 4976238923], "tags": {"highway": "tertiary_link", "lanes": "1", "lit": "yes", "maxspeed": "50", "oneway": "yes", "sidewalk": "right", "surface": "asphalt"}}, {"type": "way", "id": 508287608, "nodes": [4976238923, 4825543196, 3742890679], "tags": {"highway": "tertiary_link", "lanes": "1", "lit": "yes", "maxspeed": "50", "oneway": "yes", "sidewalk": "right", "surface": "asphalt"}}, {"type": "way", "id": 777669178, "nodes": [207486721, 1642119435, 1642119402], "tags": {"highway": "tertiary_link", "lanes": "1", "oneway": "yes"}}, {"type": "way", "id": 777689382, "nodes": [4512507380, 4823801027], "tags": {"highway": "tertiary_link", "lanes": "1", "lit": "yes", "maxspeed": "50", "oneway": "yes", "placement": "transition", "surface": "asphalt"}}, {"type": "way", "id": 777723015, "nodes": [7258076881, 7258076880, 7258076879, 7258076878, 7258076877, 7258076876], "tags": {"cycleway:right": "no", "destination": "Salle de la Bourse", "highway": "tertiary_link", "lanes": "1", "lit": "yes", "name": "Quai du G\u00e9n\u00e9ral Koenig", "oneway": "yes", "sidewalk": "right", "sidewalk:right:bicycle": "yes", "source:maxspeed": "FR:urban", "surface": "asphalt", "turn": "right"}}, {"type": "way", "id": 956957179, "nodes": [1025491877, 8855253589, 8855253588, 8855253587, 8855253586, 8855253585, 8855253584, 8855253583, 8855253582, 1025492414], "tags": {"highway": "tertiary_link", "lanes": "1", "lit": "yes", "oneway": "yes", "surface": "asphalt"}}]}