{"version": 0.6, "generator": "Overpass API 0.7.57 93a4d346", "osm3s": {"timestamp_osm_base": "2022-01-17T16:26:24Z", "copyright": "The data included in this document is from www.openstreetmap.org. The data is made available under ODbL."}, "elements": [{"type": "node", "id": 361041, "lat": 48.8385973, "lon": 2.3507157}, {"type": "node", "id": 361117, "lat": 48.8846897, "lon": 2.3295353}, {"type": "node", "id": 442190, "lat": 48.8261491, "lon": 2.3127519}, {"type": "node", "id": 442192, "lat": 48.8277487, "lon": 2.3054972}, {"type": "node", "id": 14956516, "lat": 48.8314623, "lon": 2.3759776, "tags": {"highway": "traffic_signals", "traffic_signals": "signal"}}, {"type": "node", "id": 14956524, "lat": 48.8313818, "lon": 2.3757348}, {"type": "node", "id": 34909797, "lat": 48.8260188, "lon": 2.3125631, "tags": {"name": "Porte Didot", "place": "locality", "unsigned": "yes"}}, {"type": "node", "id": 88201209, "lat": 48.8278042, "lon": 2.3052254}, {"type": "node", "id": 88201210, "lat": 48.827674, "lon": 2.3051252, "tags": {"name": "Porte de Vanves", "place": "locality", "unsigned": "no"}}, {"type": "node", "id": 132763858, "lat": 48.8263184, "lon": 2.286198}, {"type": "node", "id": 132773127, "lat": 48.8248196, "lon": 2.302075, "tags": {"highway": "traffic_signals", "traffic_signals": "signal"}}, {"type": "node", "id": 132773129, "lat": 48.8249336, "lon": 2.3024339}, {"type": "node", "id": 175093927, "lat": 48.8276208, "lon": 2.3053832}, {"type": "node", "id": 185865175, "lat": 48.8499647, "lon": 2.2771844}, {"type": "node", "id": 268208927, "lat": 48.8306792, "lon": 2.3868024}, {"type": "node", "id": 268220945, "lat": 48.831417, "lon": 2.3758627, "tags": {"crossing": "zebra", "highway": "crossing", "kerb": "lowered", "tactile_paving": "yes"}}, {"type": "node", "id": 272677541, "lat": 48.884715, "lon": 2.3296969}, {"type": "node", "id": 280734551, "lat": 48.8266085, "lon": 2.2863483}, {"type": "node", "id": 280734634, "lat": 48.8260035, "lon": 2.2865365}, {"type": "node", "id": 353705102, "lat": 48.8250635, "lon": 2.3018429}, {"type": "node", "id": 370134456, "lat": 48.8584849, "lon": 2.2843049, "tags": {"button_operated": "no", "crossing": "traffic_signals", "highway": "traffic_signals", "tactile_paving": "yes", "traffic_signals:sound": "no", "traffic_signals:vibration": "yes"}}, {"type": "node", "id": 370134459, "lat": 48.8585988, "lon": 2.2844071}, {"type": "node", "id": 370134462, "lat": 48.8582911, "lon": 2.2844252}, {"type": "node", "id": 415140511, "lat": 48.8249528, "lon": 2.301945, "tags": {"crossing": "traffic_signals", "highway": "crossing"}}, {"type": "node", "id": 597683550, "lat": 48.8264001, "lon": 2.2864246}, {"type": "node", "id": 597684942, "lat": 48.8261262, "lon": 2.2865355}, {"type": "node", "id": 838040829, "lat": 48.8585003, "lon": 2.2844048}, {"type": "node", "id": 1370151272, "lat": 48.8319968, "lon": 2.2806978}, {"type": "node", "id": 1651614432, "lat": 48.8406956, "lon": 2.3786298}, {"type": "node", "id": 1651614452, "lat": 48.8403281, "lon": 2.3788013}, {"type": "node", "id": 1740740121, "lat": 48.8397156, "lon": 2.321802}, {"type": "node", "id": 1763424822, "lat": 48.8930288, "lon": 2.4122908}, {"type": "node", "id": 1763424874, "lat": 48.8929321, "lon": 2.4122743}, {"type": "node", "id": 1763425198, "lat": 48.8929976, "lon": 2.4121619}, {"type": "node", "id": 1767583672, "lat": 48.8404584, "lon": 2.3788567, "tags": {"highway": "traffic_signals", "source": "CG93/A\u00e9rodata 2013;survey"}}, {"type": "node", "id": 1767583674, "lat": 48.8404941, "lon": 2.3788359}, {"type": "node", "id": 1775401904, "lat": 48.826071, "lon": 2.3126391, "tags": {"railway": "level_crossing"}}, {"type": "node", "id": 1775401959, "lat": 48.8276702, "lon": 2.3054256}, {"type": "node", "id": 1775401963, "lat": 48.8277239, "lon": 2.3051636}, {"type": "node", "id": 1795366557, "lat": 48.8397708, "lon": 2.3216149, "tags": {"button_operated": "no", "crossing": "traffic_signals", "highway": "crossing", "tactile_paving": "yes"}}, {"type": "node", "id": 2076233891, "lat": 48.8262018, "lon": 2.2863509}, {"type": "node", "id": 2076233894, "lat": 48.8262271, "lon": 2.2864172}, {"type": "node", "id": 2076233896, "lat": 48.8262772, "lon": 2.2863425}, {"type": "node", "id": 2076233899, "lat": 48.8263139, "lon": 2.2863268}, {"type": "node", "id": 2076233901, "lat": 48.8263438, "lon": 2.2863949}, {"type": "node", "id": 2076233904, "lat": 48.8263697, "lon": 2.2862775}, {"type": "node", "id": 2076261384, "lat": 48.8264564, "lon": 2.2863418}, {"type": "node", "id": 2344882823, "lat": 48.8468082, "lon": 2.2855765}, {"type": "node", "id": 2344882829, "lat": 48.8467049, "lon": 2.2854807, "tags": {"button_operated": "no", "crossing": "traffic_signals", "crossing:island": "no", "crossing_ref": "zebra", "highway": "crossing", "tactile_paving": "yes"}}, {"type": "node", "id": 2458010977, "lat": 48.8386505, "lon": 2.3505189}, {"type": "node", "id": 2689489641, "lat": 48.8498393, "lon": 2.2771667, "tags": {"highway": "crossing"}}, {"type": "node", "id": 3065268338, "lat": 48.8249028, "lon": 2.3023384, "tags": {"crossing": "uncontrolled", "crossing_ref": "zebra", "highway": "crossing", "source": "Bing"}}, {"type": "node", "id": 3611544143, "lat": 48.8465247, "lon": 2.2853203, "tags": {"highway": "traffic_signals", "traffic_signals": "signal"}}, {"type": "node", "id": 3745434690, "lat": 48.8214626, "lon": 2.368846}, {"type": "node", "id": 3745434703, "lat": 48.821603, "lon": 2.3692143}, {"type": "node", "id": 3745434708, "lat": 48.8216647, "lon": 2.3693755}, {"type": "node", "id": 4069612215, "lat": 48.8583797, "lon": 2.2843883, "tags": {"crossing": "uncontrolled", "crossing_ref": "zebra", "highway": "crossing", "tactile_paving": "yes"}}, {"type": "node", "id": 5056877397, "lat": 48.849014, "lon": 2.276454}, {"type": "node", "id": 5586148645, "lat": 48.8497799, "lon": 2.2771452}, {"type": "node", "id": 5586148646, "lat": 48.8496647, "lon": 2.277062}, {"type": "node", "id": 5751911426, "lat": 48.8319256, "lon": 2.2806672}, {"type": "node", "id": 5751911427, "lat": 48.8320346, "lon": 2.28074}, {"type": "node", "id": 5751911428, "lat": 48.8320654, "lon": 2.2807896}, {"type": "node", "id": 5841908082, "lat": 48.8389209, "lon": 2.2822595, "tags": {"highway": "traffic_signals"}}, {"type": "node", "id": 5841910385, "lat": 48.8389576, "lon": 2.282194}, {"type": "node", "id": 5841910388, "lat": 48.8388167, "lon": 2.2822652}, {"type": "node", "id": 6198554994, "lat": 48.8276959, "lon": 2.3054466}, {"type": "node", "id": 6198554995, "lat": 48.8277485, "lon": 2.3051825}, {"type": "node", "id": 6327208402, "lat": 48.8319596, "lon": 2.2806818}, {"type": "node", "id": 6385329156, "lat": 48.8260934, "lon": 2.3126715, "tags": {"railway": "level_crossing"}}, {"type": "node", "id": 6817982409, "lat": 48.8404311, "lon": 2.3788643, "tags": {"crossing": "traffic_signals", "crossing_ref": "zebra", "highway": "crossing", "tactile_paving": "yes"}}, {"type": "node", "id": 6954429784, "lat": 48.8306866, "lon": 2.3867691}, {"type": "node", "id": 6954444985, "lat": 48.8307016, "lon": 2.3867114}, {"type": "node", "id": 6954444986, "lat": 48.8307241, "lon": 2.3866671}, {"type": "node", "id": 6954444987, "lat": 48.8307598, "lon": 2.386641}, {"type": "node", "id": 6954444988, "lat": 48.8307916, "lon": 2.3866429}, {"type": "node", "id": 7169060107, "lat": 48.8397893, "lon": 2.3214053}, {"type": "node", "id": 7637524096, "lat": 48.8386344, "lon": 2.3505983, "tags": {"highway": "give_way"}}, {"type": "node", "id": 7741032716, "lat": 48.8406503, "lon": 2.3786129}, {"type": "node", "id": 7741032717, "lat": 48.8404629, "lon": 2.3788556}, {"type": "node", "id": 7741032718, "lat": 48.8404112, "lon": 2.378859}, {"type": "node", "id": 7890854848, "lat": 48.8215032, "lon": 2.3689021}, {"type": "node", "id": 8836579273, "lat": 48.8263531, "lon": 2.2862518, "tags": {"direction": "forward", "highway": "give_way"}}, {"type": "way", "id": 4039841, "nodes": [14956516, 268220945, 14956524], "tags": {"highway": "tertiary_link", "maxspeed": "30", "oneway": "yes", "surface": "asphalt"}}, {"type": "way", "id": 14444887, "nodes": [442190, 6385329156, 1775401904, 34909797], "tags": {"cycleway:both": "no", "highway": "tertiary_link", "lane_markings": "no", "lit": "no", "maxspeed": "30", "sidewalk": "none", "surface": "asphalt"}}, {"type": "way", "id": 16880547, "nodes": [175093927, 1775401959, 6198554994, 442192], "tags": {"highway": "tertiary_link", "lane_markings": "no", "maxspeed": "30", "oneway": "yes", "source:maxspeed": "FR:urban", "surface": "asphalt"}}, {"type": "way", "id": 17952756, "nodes": [5056877397, 5586148646, 5586148645, 2689489641, 185865175], "tags": {"foot": "no", "highway": "tertiary_link", "maxspeed": "30", "oneway": "yes", "source:maxspeed": "FR:urban", "surface": "asphalt"}}, {"type": "way", "id": 29919146, "nodes": [132763858, 2076233891, 280734634], "tags": {"cycleway:right": "no", "highway": "tertiary_link", "lit": "yes", "maxspeed": "50", "name": "Rue Jullien", "oneway": "yes", "sidewalk": "right", "surface": "asphalt"}}, {"type": "way", "id": 32858405, "nodes": [370134456, 4069612215, 370134462], "tags": {"check_date:cycleway": "2021-06-21", "cycleway:both": "no", "highway": "tertiary_link", "lanes": "1", "maxspeed": "30", "note": "raccourci de rond-point", "oneway": "yes", "surface": "asphalt"}}, {"type": "way", "id": 32858406, "nodes": [838040829, 370134459], "tags": {"cycleway:both": "no", "highway": "tertiary_link", "lanes": "1", "lit": "yes", "maxspeed": "30", "note": "raccourci de rond-point", "oneway": "yes", "source:maxspeed": "FR:urban", "surface": "asphalt"}}, {"type": "way", "id": 41740019, "nodes": [88201209, 6198554995, 1775401963, 88201210], "tags": {"highway": "tertiary_link", "lane_markings": "no", "maxspeed": "30", "oneway": "yes", "source:maxspeed": "FR:urban", "surface": "asphalt"}}, {"type": "way", "id": 46768469, "nodes": [280734551, 2076261384, 2076233904, 8836579273, 132763858], "tags": {"highway": "tertiary_link", "name": "Rue du Quatre Septembre", "oneway": "yes", "surface": "asphalt"}}, {"type": "way", "id": 46768573, "nodes": [132763858, 2076233899, 2076233901, 597683550], "tags": {"highway": "tertiary_link", "oneway": "yes", "surface": "asphalt"}}, {"type": "way", "id": 51352698, "nodes": [272677541, 361117], "tags": {"highway": "tertiary_link", "maxspeed": "30", "oneway": "yes", "source:maxspeed": "FR:urban", "surface": "asphalt"}}, {"type": "way", "id": 152338323, "nodes": [1651614432, 7741032716, 1767583674, 7741032717, 1767583672, 6817982409, 7741032718, 1651614452], "tags": {"highway": "tertiary_link", "lanes": "1", "lit": "yes", "maxspeed": "30", "name": "Rue de Bercy", "oneway": "yes", "sidewalk": "right", "surface": "asphalt"}}, {"type": "way", "id": 162142114, "nodes": [7169060107, 1795366557, 1740740121], "tags": {"cycleway:both": "no", "highway": "tertiary_link", "lanes": "1", "lit": "yes", "maxspeed": "30", "oneway": "yes", "sidewalk": "right", "source:maxspeed": "FR:urban", "surface": "asphalt"}}, {"type": "way", "id": 163782416, "nodes": [353705102, 415140511, 132773127], "tags": {"cycleway:right": "no", "highway": "tertiary_link", "lane_markings": "no", "name": "Avenue Pierre Larousse", "oneway": "yes", "ref": "D 61E", "surface": "asphalt"}}, {"type": "way", "id": 163782417, "nodes": [132773127, 3065268338, 132773129], "tags": {"cycleway:right": "no", "highway": "tertiary_link", "lanes": "1", "name": "Boulevard Charles de Gaulle", "oneway": "yes", "ref": "D 61B", "surface": "asphalt"}}, {"type": "way", "id": 164735151, "nodes": [1763424874, 1763424822], "tags": {"cycleway:right": "no", "highway": "tertiary_link", "lane_markings": "no", "maxspeed": "30", "oneway": "yes", "surface": "asphalt"}}, {"type": "way", "id": 164735154, "nodes": [1763425198, 1763424874], "tags": {"highway": "tertiary_link", "lane_markings": "no", "maxspeed": "30", "oneway": "yes", "surface": "asphalt"}}, {"type": "way", "id": 197380133, "nodes": [597684942, 2076233894, 2076233896, 132763858], "tags": {"highway": "tertiary_link", "name": "Rue Jullien", "oneway": "yes", "source": "cadastre-dgi-fr source : Direction G\u00e9n\u00e9rale des Imp\u00f4ts - Cadastre. Mise \u00e0 jour : 2012", "surface": "asphalt"}}, {"type": "way", "id": 225733077, "nodes": [2344882823, 2344882829, 3611544143], "tags": {"cycleway:both": "no", "highway": "tertiary_link", "lanes": "1", "maxspeed": "30", "name": "Place Charles Michels", "oneway": "yes", "sidewalk": "right", "source:maxspeed": "FR:urban", "surface": "asphalt"}}, {"type": "way", "id": 370869407, "nodes": [3745434690, 7890854848, 3745434703, 3745434708], "tags": {"highway": "tertiary_link", "lit": "yes", "maxspeed": "50", "name": "Boulevard Mass\u00e9na", "oneway": "yes", "surface": "asphalt"}}, {"type": "way", "id": 606753959, "nodes": [5751911428, 5751911427, 1370151272, 6327208402, 5751911426], "tags": {"cycleway:right": "no", "highway": "tertiary_link", "lane_markings": "no", "maxspeed": "30", "name": "Rue d'Oradour-sur-Glane", "oneway": "yes", "surface": "asphalt"}}, {"type": "way", "id": 618028967, "nodes": [5841910388, 5841908082, 5841910385], "tags": {"cycleway:right": "lane", "highway": "tertiary_link", "lane_markings": "no", "lit": "yes", "maxspeed": "30", "oneway": "yes", "surface": "asphalt"}}, {"type": "way", "id": 675813418, "nodes": [361041, 7637524096, 2458010977], "tags": {"cycleway:both": "no", "foot": "no", "highway": "tertiary_link", "lane_markings": "no", "lit": "yes", "maxspeed": "30", "oneway": "yes", "sidewalk": "none", "surface": "asphalt"}}, {"type": "way", "id": 742897795, "nodes": [6954444988, 6954444987, 6954444986, 6954444985, 6954429784, 268208927], "tags": {"highway": "tertiary_link", "lit": "yes", "maxspeed": "30", "name": "Avenue des Terroirs de France", "oneway": "yes", "surface": "asphalt"}}]}