{"version": 0.6, "generator": "Overpass API 0.7.57 93a4d346", "osm3s": {"timestamp_osm_base": "2022-01-17T16:06:09Z", "copyright": "The data included in this document is from www.openstreetmap.org. The data is made available under ODbL."}, "elements": [{"type": "node", "id": 27489948, "lat": 47.308641, "lon": 5.0337862}, {"type": "node", "id": 31307660, "lat": 47.3160386, "lon": 5.0245486}, {"type": "node", "id": 32592454, "lat": 47.3089885, "lon": 5.0377575}, {"type": "node", "id": 32592455, "lat": 47.3088777, "lon": 5.0377313}, {"type": "node", "id": 205409186, "lat": 47.3460457, "lon": 5.0464764}, {"type": "node", "id": 250704527, "lat": 47.308835, "lon": 5.0369907}, {"type": "node", "id": 251661009, "lat": 47.3161616, "lon": 5.024894, "tags": {"crossing": "uncontrolled", "crossing_ref": "zebra", "highway": "crossing"}}, {"type": "node", "id": 251661011, "lat": 47.316229, "lon": 5.0251511}, {"type": "node", "id": 252120631, "lat": 47.3163053, "lon": 5.0263053}, {"type": "node", "id": 252120641, "lat": 47.3165302, "lon": 5.0263065}, {"type": "node", "id": 252120644, "lat": 47.3166545, "lon": 5.0262919}, {"type": "node", "id": 252120647, "lat": 47.3167213, "lon": 5.0262044}, {"type": "node", "id": 252120650, "lat": 47.3169614, "lon": 5.0259008}, {"type": "node", "id": 262552088, "lat": 47.3294127, "lon": 5.0494042}, {"type": "node", "id": 263027591, "lat": 47.3412823, "lon": 5.0513431}, {"type": "node", "id": 263027607, "lat": 47.3393827, "lon": 5.05329}, {"type": "node", "id": 263027624, "lat": 47.343731, "lon": 5.0488436}, {"type": "node", "id": 263027626, "lat": 47.3440322, "lon": 5.0485355}, {"type": "node", "id": 263034029, "lat": 47.3438815, "lon": 5.0489332}, {"type": "node", "id": 263034048, "lat": 47.3413525, "lon": 5.0515264}, {"type": "node", "id": 263034049, "lat": 47.3384762, "lon": 5.0544644}, {"type": "node", "id": 266222518, "lat": 47.3400374, "lon": 5.0528669}, {"type": "node", "id": 731402620, "lat": 47.3398851, "lon": 5.0527491}, {"type": "node", "id": 731402628, "lat": 47.3426095, "lon": 5.0502349}, {"type": "node", "id": 731402634, "lat": 47.3425339, "lon": 5.0500677}, {"type": "node", "id": 731402637, "lat": 47.3397626, "lon": 5.0531481}, {"type": "node", "id": 1469622807, "lat": 47.316911, "lon": 5.0651724}, {"type": "node", "id": 1469622809, "lat": 47.3169488, "lon": 5.0651472}, {"type": "node", "id": 1469622811, "lat": 47.3169843, "lon": 5.0651093, "tags": {"highway": "crossing"}}, {"type": "node", "id": 1469622846, "lat": 47.3171625, "lon": 5.0658788}, {"type": "node", "id": 1521528606, "lat": 47.3028422, "lon": 5.0714667}, {"type": "node", "id": 1521528625, "lat": 47.3028036, "lon": 5.0717582}, {"type": "node", "id": 1725226134, "lat": 47.317314, "lon": 5.065553}, {"type": "node", "id": 1725226136, "lat": 47.3172044, "lon": 5.065719}, {"type": "node", "id": 1725226138, "lat": 47.3173938, "lon": 5.0654818}, {"type": "node", "id": 1725230644, "lat": 47.3168503, "lon": 5.0651576}, {"type": "node", "id": 1767842092, "lat": 47.3172576, "lon": 5.0656117, "tags": {"crossing": "traffic_signals", "highway": "crossing"}}, {"type": "node", "id": 2036132375, "lat": 47.3395045, "lon": 5.0533646}, {"type": "node", "id": 2036132378, "lat": 47.3461207, "lon": 5.0466417}, {"type": "node", "id": 2036132385, "lat": 47.3383937, "lon": 5.0543012}, {"type": "node", "id": 2036132389, "lat": 47.3399238, "lon": 5.052754}, {"type": "node", "id": 2036132394, "lat": 47.339426, "lon": 5.0533671}, {"type": "node", "id": 2036132403, "lat": 47.3394649, "lon": 5.0533825}, {"type": "node", "id": 2036132413, "lat": 47.3400167, "lon": 5.0527984}, {"type": "node", "id": 2036132422, "lat": 47.3399722, "lon": 5.0527642}, {"type": "node", "id": 2036197410, "lat": 47.3440689, "lon": 5.0487414}, {"type": "node", "id": 2061555885, "lat": 47.329321, "lon": 5.071026, "tags": {"crossing": "marked", "crossing_ref": "zebra", "highway": "crossing"}}, {"type": "node", "id": 2061555891, "lat": 47.3294387, "lon": 5.0708792}, {"type": "node", "id": 2061555901, "lat": 47.3292629, "lon": 5.0713097}, {"type": "node", "id": 2061555909, "lat": 47.3292854, "lon": 5.0711067}, {"type": "node", "id": 2061555927, "lat": 47.3293663, "lon": 5.0709494}, {"type": "node", "id": 2132564000, "lat": 47.3171165, "lon": 5.0647965}, {"type": "node", "id": 2132564010, "lat": 47.3170228, "lon": 5.065037}, {"type": "node", "id": 2194091561, "lat": 47.3088718, "lon": 5.0374006}, {"type": "node", "id": 2512329036, "lat": 47.3162512, "lon": 5.0256564}, {"type": "node", "id": 2605396541, "lat": 47.3028035, "lon": 5.0716835}, {"type": "node", "id": 2850049112, "lat": 47.3162239, "lon": 5.026126}, {"type": "node", "id": 2850049115, "lat": 47.3164529, "lon": 5.0258835}, {"type": "node", "id": 3339377326, "lat": 47.3163912, "lon": 5.0262626, "tags": {"bicycle": "yes", "crossing": "traffic_signals", "highway": "crossing"}}, {"type": "node", "id": 3339381982, "lat": 47.3166432, "lon": 5.0252233, "tags": {"bicycle": "yes", "crossing": "marked", "highway": "crossing", "tactile_paving": "no"}}, {"type": "node", "id": 3339381983, "lat": 47.3165599, "lon": 5.0255758, "tags": {"bicycle": "yes", "crossing": "marked", "highway": "crossing"}}, {"type": "node", "id": 5217675432, "lat": 47.3295102, "lon": 5.0494972}, {"type": "node", "id": 5803304847, "lat": 47.3088043, "lon": 5.0375841, "tags": {"crossing": "marked", "crossing_ref": "zebra", "highway": "crossing"}}, {"type": "node", "id": 5803304848, "lat": 47.3087202, "lon": 5.0376938}, {"type": "node", "id": 5803304849, "lat": 47.3089223, "lon": 5.0380639}, {"type": "node", "id": 5803304850, "lat": 47.309037, "lon": 5.0378979, "tags": {"crossing": "marked", "crossing_ref": "zebra", "highway": "crossing"}}, {"type": "node", "id": 5803304851, "lat": 47.3091468, "lon": 5.0378443}, {"type": "node", "id": 5803307853, "lat": 47.3089514, "lon": 5.038004}, {"type": "node", "id": 6189261090, "lat": 47.3168052, "lon": 5.0260473}, {"type": "node", "id": 6189261091, "lat": 47.3165963, "lon": 5.0263156}, {"type": "node", "id": 6205127439, "lat": 47.308776, "lon": 5.0345041}, {"type": "node", "id": 6205127440, "lat": 47.3087185, "lon": 5.0343018}, {"type": "node", "id": 6205127441, "lat": 47.3087016, "lon": 5.0339928, "tags": {"highway": "traffic_signals", "traffic_signals": "signal"}}, {"type": "node", "id": 6205127442, "lat": 47.3086812, "lon": 5.0338491}, {"type": "node", "id": 6205188143, "lat": 47.308844, "lon": 5.037512}, {"type": "node", "id": 6205188146, "lat": 47.3087783, "lon": 5.0386148}, {"type": "node", "id": 6205188147, "lat": 47.3089958, "lon": 5.0379358}, {"type": "node", "id": 6205192565, "lat": 47.3088881, "lon": 5.0371202}, {"type": "node", "id": 6205192567, "lat": 47.3089353, "lon": 5.037633, "tags": {"crossing": "marked", "highway": "crossing"}}, {"type": "node", "id": 6205197986, "lat": 47.3087756, "lon": 5.0384414}, {"type": "node", "id": 6205197987, "lat": 47.3089088, "lon": 5.0379115, "tags": {"highway": "traffic_signals", "traffic_signals:direction": "forward"}}, {"type": "node", "id": 6205197988, "lat": 47.3089094, "lon": 5.0378745}, {"type": "node", "id": 6205199065, "lat": 47.3088988, "lon": 5.0377998}, {"type": "node", "id": 6207093084, "lat": 47.3089505, "lon": 5.037705}, {"type": "node", "id": 6642022423, "lat": 47.3161142, "lon": 5.0247522}, {"type": "node", "id": 6700510450, "lat": 47.3161203, "lon": 5.0247677}, {"type": "node", "id": 6703553946, "lat": 47.3168414, "lon": 5.0259896}, {"type": "node", "id": 6703553947, "lat": 47.3168891, "lon": 5.0259304, "tags": {"crossing": "marked", "highway": "crossing"}}, {"type": "node", "id": 6703553948, "lat": 47.3166843, "lon": 5.0249332}, {"type": "node", "id": 6703553949, "lat": 47.3167451, "lon": 5.0248765}, {"type": "node", "id": 6703553961, "lat": 47.3166414, "lon": 5.0250012}, {"type": "node", "id": 6703553962, "lat": 47.3166048, "lon": 5.0250481}, {"type": "node", "id": 6703553963, "lat": 47.3165798, "lon": 5.0250725, "tags": {"highway": "traffic_signals", "traffic_signals": "signal"}}, {"type": "node", "id": 6703553964, "lat": 47.31652, "lon": 5.0250885}, {"type": "node", "id": 6703553965, "lat": 47.3164766, "lon": 5.0250826}, {"type": "node", "id": 6703553966, "lat": 47.3164311, "lon": 5.0250683}, {"type": "node", "id": 6703553968, "lat": 47.3161871, "lon": 5.0265239}, {"type": "node", "id": 6703553982, "lat": 47.3166341, "lon": 5.0252797}, {"type": "node", "id": 6703560791, "lat": 47.3165812, "lon": 5.0255098}, {"type": "node", "id": 6703560792, "lat": 47.3165935, "lon": 5.0254044}, {"type": "node", "id": 6703560793, "lat": 47.31659, "lon": 5.0253335}, {"type": "node", "id": 6703560794, "lat": 47.3166261, "lon": 5.0254303}, {"type": "node", "id": 6703560795, "lat": 47.3163539, "lon": 5.0262668}, {"type": "node", "id": 6703560799, "lat": 47.3165509, "lon": 5.025084, "tags": {"crossing": "marked", "highway": "crossing", "tactile_paving": "no"}}, {"type": "node", "id": 6703560807, "lat": 47.3165524, "lon": 5.0255975, "tags": {"highway": "traffic_signals", "traffic_signals": "signal"}}, {"type": "node", "id": 6703560808, "lat": 47.3166531, "lon": 5.0251915, "tags": {"highway": "traffic_signals", "traffic_signals": "signal"}}, {"type": "node", "id": 6703560811, "lat": 47.3165925, "lon": 5.0254513}, {"type": "node", "id": 6703560813, "lat": 47.3166274, "lon": 5.0253558}, {"type": "node", "id": 6703560815, "lat": 47.3165924, "lon": 5.0253699}, {"type": "node", "id": 6703560817, "lat": 47.3165817, "lon": 5.0252765}, {"type": "node", "id": 6703560819, "lat": 47.31663, "lon": 5.0255118}, {"type": "node", "id": 6703576795, "lat": 47.3162462, "lon": 5.0257876, "tags": {"crossing": "uncontrolled", "crossing_ref": "zebra", "highway": "crossing"}}, {"type": "node", "id": 6710423042, "lat": 47.3167993, "lon": 5.0246663}, {"type": "node", "id": 6710423044, "lat": 47.3167807, "lon": 5.0247581}, {"type": "node", "id": 6893674448, "lat": 47.3161425, "lon": 5.0248322}, {"type": "node", "id": 7187285772, "lat": 47.3438543, "lon": 5.048917, "tags": {"highway": "give_way"}}, {"type": "node", "id": 7187285773, "lat": 47.3440468, "lon": 5.0486177, "tags": {"highway": "give_way"}}, {"type": "node", "id": 8026068537, "lat": 47.3162803, "lon": 5.0262674}, {"type": "node", "id": 8026068538, "lat": 47.3162584, "lon": 5.0254205}, {"type": "node", "id": 8026068539, "lat": 47.3162483, "lon": 5.0252834}, {"type": "node", "id": 8069373034, "lat": 47.3156666, "lon": 5.0278836}, {"type": "node", "id": 8069373037, "lat": 47.3157391, "lon": 5.0279331}, {"type": "node", "id": 8069373038, "lat": 47.3155272, "lon": 5.0282994}, {"type": "node", "id": 8069373039, "lat": 47.3156023, "lon": 5.0283517}, {"type": "node", "id": 8874914754, "lat": 47.3090164, "lon": 5.0379169, "tags": {"highway": "traffic_signals", "traffic_signals:direction": "forward"}}, {"type": "node", "id": 8874914758, "lat": 47.3089326, "lon": 5.0376032, "tags": {"highway": "traffic_signals", "traffic_signals:direction": "forward"}}, {"type": "node", "id": 8874914760, "lat": 47.3088203, "lon": 5.0375551, "tags": {"highway": "traffic_signals", "traffic_signals:direction": "forward"}}, {"type": "node", "id": 9401067227, "lat": 47.3292709, "lon": 5.071174}, {"type": "way", "id": 23255469, "nodes": [31307660, 6642022423, 6700510450], "tags": {"destination:ref": "M 108G", "highway": "secondary_link", "lanes": "1", "maxspeed": "50", "name": "Avenue Gustave Eiffel", "oneway": "yes", "ref": "M 108G", "surface": "asphalt"}}, {"type": "way", "id": 23255470, "nodes": [251661011, 8026068539, 8026068538, 2512329036, 6703576795, 2850049112], "tags": {"destination:ref": "M 108G", "highway": "secondary_link", "lanes": "1", "lit": "yes", "maxspeed": "50", "name": "Avenue Gustave Eiffel", "oneway": "yes", "ref": "M 108G", "surface": "asphalt"}}, {"type": "way", "id": 23291602, "nodes": [252120631, 6703560795, 3339377326, 252120641, 6189261091, 252120644, 252120647, 6189261090, 6703553946, 6703553947, 252120650], "tags": {"highway": "secondary_link", "lanes": "1", "lit": "yes", "maxspeed": "50", "name": "Quai Nicolas Rolin", "oneway": "yes", "ref": "M 108G", "surface": "asphalt"}}, {"type": "way", "id": 24292013, "nodes": [2036197410, 7187285773, 263027626], "tags": {"cycleway:right": "no", "foot": "use_sidepath", "highway": "secondary_link", "lane_markings": "no", "lit": "yes", "maxspeed": "50", "maxspeed:type": "FR:urban", "oneway": "yes", "sidewalk": "separate", "surface": "asphalt"}}, {"type": "way", "id": 24292014, "nodes": [263027624, 7187285772, 263034029], "tags": {"cycleway:right": "no", "foot": "no", "highway": "secondary_link", "lane_markings": "no", "lit": "yes", "maxspeed": "50", "maxspeed:type": "FR:urban", "oneway": "yes", "sidewalk": "none", "surface": "asphalt"}}, {"type": "way", "id": 24292016, "nodes": [263027591, 263034048], "tags": {"cycleway:both": "no", "highway": "secondary_link", "lanes": "2", "lit": "yes", "maxspeed:type": "FR:urban", "sidewalk": "both", "surface": "asphalt"}}, {"type": "way", "id": 24292018, "nodes": [2036132385, 263034049], "tags": {"highway": "secondary_link"}}, {"type": "way", "id": 59007493, "nodes": [266222518, 2036132413, 2036132422, 2036132389, 731402620], "tags": {"cycleway:right": "no", "foot": "no", "highway": "secondary_link", "lane_markings": "no", "lit": "yes", "maxspeed:type": "FR:urban", "oneway": "yes", "sidewalk": "none", "surface": "asphalt"}}, {"type": "way", "id": 59007494, "nodes": [2036132378, 205409186], "tags": {"cycleway:both": "no", "foot": "no", "highway": "secondary_link", "lanes": "2", "lit": "yes", "maxspeed:type": "FR:urban", "sidewalk": "none", "surface": "asphalt"}}, {"type": "way", "id": 59007495, "nodes": [263027607, 2036132394, 2036132403, 2036132375, 731402637], "tags": {"cycleway:right": "no", "foot": "no", "highway": "secondary_link", "lane_markings": "no", "lit": "yes", "maxspeed:type": "FR:urban", "oneway": "yes", "sidewalk": "none", "surface": "asphalt"}}, {"type": "way", "id": 59007496, "nodes": [731402634, 731402628], "tags": {"cycleway:both": "no", "foot": "no", "highway": "secondary_link", "lanes": "2", "lit": "yes", "maxspeed": "50", "maxspeed:type": "FR:urban", "sidewalk": "none", "surface": "asphalt"}}, {"type": "way", "id": 160465388, "nodes": [1469622846, 1725226136, 1767842092, 1725226134, 1725226138], "tags": {"alt_name": "Boulevard de Sully", "highway": "secondary_link", "lanes": "1", "maxspeed": "50", "name": "Rue Sully", "old_ref": "D 107", "oneway": "yes", "ref": "M 107", "surface": "asphalt"}}, {"type": "way", "id": 195738564, "nodes": [2061555901, 9401067227, 2061555909, 2061555885, 2061555927, 2061555891], "tags": {"highway": "secondary_link", "lanes": "1", "maxspeed": "50", "name": "Avenue du Colonel Ernest Prat", "oneway": "yes"}}, {"type": "way", "id": 203264064, "nodes": [2132564000, 2132564010, 1469622811, 1469622809, 1469622807, 1725230644], "tags": {"highway": "secondary_link", "lanes": "1", "maxspeed": "50", "name": "Rue de Mirande", "old_ref": "D 107", "oneway": "yes", "ref": "M 107", "surface": "asphalt"}}, {"type": "way", "id": 274946223, "nodes": [1521528606, 2605396541, 1521528625], "tags": {"cycleway:right": "no", "foot": "no", "highway": "secondary_link", "lane_markings": "no", "lit": "yes", "maxspeed": "50", "oneway": "yes", "surface": "asphalt"}}, {"type": "way", "id": 539182861, "nodes": [5217675432, 262552088], "tags": {"cycleway:both": "no", "highway": "secondary_link", "lanes": "2", "lit": "yes", "maxspeed:type": "FR:urban", "name": "Boulevard de la Marne", "sidewalk": "both", "surface": "asphalt"}}, {"type": "way", "id": 613292742, "nodes": [2194091561, 6205188143, 8874914760, 5803304847, 5803304848], "tags": {"cycleway:right": "no", "highway": "secondary_link", "maxspeed": "50", "oneway": "yes"}}, {"type": "way", "id": 613292751, "nodes": [5803304849, 5803307853, 6205188147, 8874914754, 5803304850, 5803304851], "tags": {"cycleway:right": "no", "highway": "secondary_link", "maxspeed": "50", "oneway": "yes"}}, {"type": "way", "id": 662845013, "nodes": [6205127439, 6205127440, 6205127441, 6205127442, 27489948], "tags": {"highway": "secondary_link", "oneway": "yes", "surface": "asphalt"}}, {"type": "way", "id": 662852929, "nodes": [250704527, 6205192565, 8874914758, 6205192567, 6207093084, 32592454], "tags": {"cycleway:right": "no", "highway": "secondary_link", "maxspeed:type": "FR:urban", "oneway": "yes", "sidewalk": "none"}}, {"type": "way", "id": 662853175, "nodes": [6205188146, 6205197986, 6205197987, 6205197988, 6205199065, 32592455], "tags": {"highway": "secondary_link", "oneway": "yes"}}, {"type": "way", "id": 712668655, "nodes": [6700510450, 6893674448, 251661009, 251661011], "tags": {"bridge": "yes", "destination:ref": "M 108G", "highway": "secondary_link", "lanes": "1", "layer": "1", "lit": "yes", "maxspeed": "50", "maxweight:signed": "no", "name": "Avenue Gustave Eiffel", "oneway": "yes", "ref": "M 108G", "sidewalk": "both", "surface": "asphalt"}}, {"type": "way", "id": 713104675, "nodes": [6710423042, 6710423044, 6703553949, 6703560808, 3339381982, 6703553982, 6703560813], "tags": {"highway": "secondary_link", "lanes": "1", "lit": "yes", "maxspeed": "50", "name": "Quai Nicolas Rolin", "oneway": "yes", "surface": "asphalt", "turn:lanes": "left"}}, {"type": "way", "id": 713104679, "nodes": [6703553948, 6703553961, 6703553962, 6703553963, 6703560799, 6703553964, 6703553965, 6703553966], "tags": {"destination": "Corcelles-les-Monts", "destination:ref": "M 108G", "highway": "secondary_link", "lanes": "1", "maxspeed": "50", "name": "Quai Nicolas Rolin", "oneway": "yes", "surface": "asphalt", "turn:lanes": "right"}}, {"type": "way", "id": 713718519, "nodes": [6703553968, 8026068537, 2850049115, 6703560807, 3339381983, 6703560791, 6703560811], "tags": {"destination": "Corcelles-les-Monts", "destination:ref": "M 108G", "highway": "secondary_link", "lanes": "2", "lit": "yes", "maxspeed": "50", "name": "Quai Nicolas Rolin", "oneway": "yes", "ref": "M 108G", "surface": "asphalt", "turn:lanes": "left|left"}}, {"type": "way", "id": 865670354, "nodes": [6703560813, 6703560794, 6703560819], "tags": {"highway": "secondary_link", "lanes": "1", "lit": "yes", "maxspeed": "50", "name": "Quai Nicolas Rolin", "oneway": "yes", "surface": "asphalt", "turn:lanes": "left"}}, {"type": "way", "id": 865670356, "nodes": [6703560811, 6703560792, 6703560815, 6703560793, 6703560817], "tags": {"destination": "Corcelles-les-Monts", "destination:ref": "M 108G", "highway": "secondary_link", "lanes": "2", "maxspeed": "50", "name": "Quai Nicolas Rolin", "oneway": "yes", "ref": "M 108G", "surface": "asphalt", "turn:lanes": "left|left"}}, {"type": "way", "id": 865717104, "nodes": [8069373034, 8069373037], "tags": {"highway": "secondary_link", "maxspeed": "50", "name": "Quai Nicolas Rolin", "ref": "M 108G", "surface": "asphalt"}}, {"type": "way", "id": 865717105, "nodes": [8069373038, 8069373039], "tags": {"highway": "secondary_link", "maxspeed": "50", "name": "Quai Nicolas Rolin", "ref": "M 108G", "surface": "asphalt"}}]}